[Satellite]
VERSION=1.1
NAME=STARLINK-5115
NICKNAME=STARLINK-5115
TLE1=1 53989U 22125AB  22297.16668981 -.00144767  00000+0 -10443-2 0  9997
TLE2=2 53989  53.2191   1.5125 0003322  11.2685 248.1204 15.73203436  3259
STATUS=0
